ONEWEB-0531             
1 54146U 22138AK  24232.19394782 -.00000308  00000+0 -78951-3 0  9997
2 54146  87.9191  47.1112 0002670 105.5933 254.5495 13.20771320 92139
ONEWEB-0535             
1 54147U 22138AL  24231.58824806  .00000025  00000+0  29617-4 0  9995
2 54147  87.9092  77.7755 0001922  91.0895 269.0458 13.19726616 88789
ONEWEB-0536             
1 54148U 22138AM  24231.87830767  .00000233  00000+0  54195-3 0  9990
2 54148  87.9188  47.2228 0002844  92.4799 267.6660 13.20774245 91219
ONEWEB-0527             
1 54642U 22166A   24231.90754283  .00000013  00000+0  11352-5 0  9998
2 54642  87.9319  16.8367 0001820  99.2482 260.8858 13.21825322 83384
ONEWEB-0528             
1 54643U 22166B   24231.91384751  .00000037  00000+0  57513-4 0  9993
2 54643  87.9323  16.8251 0001597  94.9384 265.1932 13.21826736 83398
ONEWEB-0539             
1 54644U 22166C   24231.87442687 -.00000004  00000+0 -41226-4 0  9992
2 54644  87.9325  16.8359 0001757  89.6667 270.4669 13.21825837 83389
ONEWEB-0540             
1 54645U 22166D   24231.86890138  .00000060  00000+0  11469-3 0  9995
2 54645  87.9320  16.8518 0001693  82.6963 277.4364 13.21823617 83375
ONEWEB-0542             
1 54646U 22166E   24232.41374603  .00000122  00000+0  26317-3 0  9999
2 54646  87.9324  16.7279 0002013  79.9635 280.1726 13.21828999 83916
